OBJECT_NAME,OBJECT_ID,EPOCH,MEAN_MOTION,ECCENTRICITY,INCLINATION,RA_OF_ASC_NODE,ARG_OF_PERICENTER,MEAN_ANOMALY,EPHEMERIS_TYPE,CLASSIFICATION_TYPE,NORAD_CAT_ID,ELEMENT_SET_NO,REV_AT_EPOCH,BSTAR,MEAN_MOTION_DOT,MEAN_MOTION_DDOT
DMSP 5D-3 F16 (USA 172),2003-048A,2026-07-04T20:54:06.846048,14.14484582,.00082076,98.9886,209.8158,96.3111,77.7231,0,U,28054,999,17198,.3445029E-4,.21E-6,0
METEOSAT-9 (MSG-2),2005-049B,2026-07-04T17:31:39.317088,1.00268028,.00023882,9.3983,53.9918,0.4955,176.8994,0,U,28912,999,717,0,.133E-5,0
DMSP 5D-3 F17 (USA 191),2006-050A,2026-07-04T18:38:34.931616,14.14995555,.00103524,98.7381,191.9870,12.6219,347.5212,0,U,29522,999,1491,.63526541E-4,.8E-6,0
FENGYUN 3A,2008-026A,2026-07-04T19:25:11.678880,14.19575153,.00098744,98.6885,126.3129,78.4956,281.7329,0,U,32958,999,93790,.84879115E-4,.136E-5,0
GOES 14,2009-033A,2026-07-04T23:03:58.506912,1.00104012,.00021427,1.7327,82.8376,30.2434,287.2365,0,U,35491,999,676,0,-.332E-5,0
DMSP 5D-3 F18 (USA 210),2009-057A,2026-07-04T21:22:39.454752,14.14907247,.00106054,98.9047,166.6220,195.0087,165.0773,0,U,35951,999,86209,.18995085E-3,.322E-5,0
EWS-G2 (GOES 15),2010-008A,2026-07-04T22:21:25.413696,1.00268353,.00053518,1.3233,82.6058,47.9655,191.1647,0,U,36411,999,5981,0,.34E-6,0
COMS 1,2010-032A,2026-07-04T20:44:48.528384,0.99169370,.00116398,4.8475,75.1472,14.1480,147.8491,0,U,36744,999,5126,0,-.135E-5,0
FENGYUN 3B,2010-059A,2026-07-04T23:52:07.182048,14.14845813,.00228483,98.9605,232.0838,134.4019,343.2835,0,U,37214,999,80994,.14449698E-3,.235E-5,0
SUOMI NPP,2011-061A,2026-07-04T19:42:20.193120,14.19521234,.00006162,98.7955,126.5769,295.0250,65.0862,0,U,37849,999,76094,.72858506E-4,.109E-5,0
METEOSAT-10 (MSG-3),2012-035B,2026-07-04T20:43:56.112096,1.00269637,.00014421,4.7106,60.9319,17.2470,155.7782,0,U,38552,999,5103,0,.4E-7,0
METOP-B,2012-049A,2026-07-04T20:35:09.404736,14.21444425,.00012096,98.6494,237.0037,317.1555,42.9529,0,U,38771,999,71577,.8185319E-4,.136E-5,0
INSAT-3D,2013-038B,2026-07-02T20:26:20.229792,1.00268722,.00010564,1.9642,82.3574,15.1644,259.4386,0,U,39216,999,4723,0,-.329E-5,0
FENGYUN 3C,2013-052A,2026-07-04T23:52:35.458176,14.15759183,.00141801,98.4997,159.0528,336.8271,23.2263,0,U,39260,999,66108,.69060164E-4,.94E-6,0
METEOR-M 2,2014-037A,2026-07-04T22:54:07.093728,14.21466389,.0005788,98.5127,161.0643,358.0310,2.0844,0,U,40069,999,62184,-.9680016E-5,-.63E-6,0
HIMAWARI-8,2014-060A,2026-07-04T21:24:01.462176,1.00270896,.00009838,0.0174,24.8367,90.5416,269.2001,0,U,40267,999,4293,0,-.263E-5,0
FENGYUN 2G,2014-090A,2026-07-04T23:35:57.366240,1.00265591,.00036514,5.6811,72.6060,150.0888,153.7970,0,U,40367,999,4217,0,-.29E-5,0
METEOSAT-11 (MSG-4),2015-034A,2026-07-04T20:46:33.360960,1.00268624,.00022458,3.2446,70.9999,349.9240,182.8805,0,U,40732,999,739,0,.73E-6,0
ELEKTRO-L 2,2015-074A,2026-07-04T22:22:25.997376,1.00273703,.00006172,6.7363,70.3059,256.6108,277.0927,0,U,41105,999,3868,0,-.107E-5,0
SENTINEL-3A,2016-011A,2026-07-04T17:58:37.029216,14.26737941,.00014241,98.6242,252.8799,93.6283,266.5060,0,U,41335,999,54056,.88707544E-4,.171E-5,0
INSAT-3DR,2016-054A,2026-07-02T10:54:40.578912,1.00272241,.0010094,0.1421,85.9447,186.2693,245.9301,0,U,41752,999,3597,0,-.66E-6,0
HIMAWARI-9,2016-064A,2026-07-02T16:41:28.737600,1.00268231,.00014383,0.0302,267.9360,225.4185,178.4790,0,U,41836,999,3536,0,-.265E-5,0
GOES 16,2016-071A,2026-07-04T21:56:44.662848,1.00271871,.00005119,0.3816,85.6785,49.1054,12.6360,0,U,41866,999,3528,0,-.78E-6,0
FENGYUN 4A,2016-077A,2026-07-04T23:01:51.210336,1.00274716,.00079759,2.3650,80.0930,157.8724,154.2256,0,U,41882,999,3510,0,-.345E-5,0
CYGFM05,2016-078A,2026-07-04T22:32:48.363360,15.57470867,.00078186,34.9560,142.9683,303.6053,56.3925,0,U,41884,999,53152,.51643644E-3,.39415E-3,0
CYGFM04,2016-078B,2026-07-04T22:01:16.961952,15.62567488,.00061202,34.9321,109.8929,339.0908,20.9567,0,U,41885,999,53177,.57355646E-3,.53309E-3,0
CYGFM02,2016-078C,2026-07-04T21:12:03.767616,15.65738946,.00069251,34.9400,104.1247,342.5464,17.5025,0,U,41886,999,53194,.58862602E-3,.62141E-3,0
CYGFM01,2016-078D,2026-07-04T14:23:53.597760,15.58151423,.00078276,34.9394,146.1326,295.2783,64.7131,0,U,41887,999,53142,.59020928E-3,.46265E-3,0
CYGFM08,2016-078E,2026-07-04T21:54:14.472864,15.60983427,.00082474,34.9427,123.1589,328.3939,31.6290,0,U,41888,999,53174,.55179577E-3,.48221E-3,0
CYGFM07,2016-078G,2026-07-04T20:53:47.495904,15.61088401,.00065135,34.9443,111.7650,339.8254,20.2213,0,U,41890,999,53176,.56210006E-3,.49298E-3,0
CYGFM03,2016-078H,2026-07-04T21:44:16.106208,15.61080256,.00064711,34.9397,113.4624,326.7617,33.2701,0,U,41891,999,53174,.56093509E-3,.49179E-3,0
